{
  "type": "FeatureCollection",
  "features": [
    {
      "type": "Feature",
      "properties": {
        "norad_id": 37996,
        "name": "COSMOS 2251 DEB",
        "group": "cosmos-2251-debris",
        "lat": -68.21214208286825,
        "lon": 175.93890017763582,
        "alt_km": 759.3947298243975,
        "timestamp": "2025-12-02T07:10:09.514287+00:00",
        "meta_object_name": "COSMOS 2251 DEB",
        "meta_object_id": "1993-036BQX",
        "meta_epoch": "2025-11-16T18:35:00.708864",
        "meta_mean_motion": 14.09591608,
        "meta_eccentricity": 0.02219827,
        "meta_inclination": 74.0658,
        "meta_ra_of_asc_node": 248.8308,
        "meta_arg_of_pericenter": 5.4709,
        "meta_mean_anomaly": 354.8776,
        "meta_ephemeris_type": 0,
        "meta_classification_type": "U",
        "meta_norad_cat_id": 37996,
        "meta_element_set_no": 999,
        "meta_rev_at_epoch": 55769,
        "meta_bstar": 0.0096790999,
        "meta_mean_motion_dot": 0.00021331,
        "meta_mean_motion_ddot": 0,
        "tle_line1": "1 37996U 93036BQX 25320.77431376  .00021331  00000+0  96791-2 0  9998",
        "tle_line2": "2 37996  74.0658 248.8308 0221982   5.4709 354.8776 14.09591608557693"
      },
      "geometry": {
        "type": "Point",
        "coordinates": [
          175.93890017763582,
          -68.21214208286825
        ]
      }
    },
    {
      "type": "Feature",
      "properties": {
        "norad_id": 37998,
        "name": "COSMOS 2251 DEB",
        "group": "cosmos-2251-debris",
        "lat": 42.986088641183166,
        "lon": -89.96425130313654,
        "alt_km": 733.0650684283328,
        "timestamp": "2025-12-02T07:10:09.514297+00:00",
        "meta_object_name": "COSMOS 2251 DEB",
        "meta_object_id": "1993-036BQZ",
        "meta_epoch": "2025-11-29T12:31:01.771392",
        "meta_mean_motion": 14.45395467,
        "meta_eccentricity": 0.00197878,
        "meta_inclination": 74.0369,
        "meta_ra_of_asc_node": 259.7366,
        "meta_arg_of_pericenter": 336.2714,
        "meta_mean_anomaly": 23.753,
        "meta_ephemeris_type": 0,
        "meta_classification_type": "U",
        "meta_norad_cat_id": 37998,
        "meta_element_set_no": 999,
        "meta_rev_at_epoch": 64096,
        "meta_bstar": 0.00059073677,
        "meta_mean_motion_dot": 2.057e-05,
        "meta_mean_motion_ddot": 0,
        "tle_line1": "1 37998U 93036BQZ 25333.52154828  .00002057  00000+0  59074-3 0  9999",
        "tle_line2": "2 37998  74.0369 259.7366 0019787 336.2714  23.7530 14.45395467640966"
      },
      "geometry": {
        "type": "Point",
        "coordinates": [
          -89.96425130313654,
          42.986088641183166
        ]
      }
    },
    {
      "type": "Feature",
      "properties": {
        "norad_id": 38001,
        "name": "COSMOS 2251 DEB",
        "group": "cosmos-2251-debris",
        "lat": -2.5668361978647316,
        "lon": -26.35678740652223,
        "alt_km": 659.610611916055,
        "timestamp": "2025-12-02T07:10:09.514307+00:00",
        "meta_object_name": "COSMOS 2251 DEB",
        "meta_object_id": "1993-036BRC",
        "meta_epoch": "2025-11-30T18:41:53.236032",
        "meta_mean_motion": 14.78870093,
        "meta_eccentricity": 0.00651424,
        "meta_inclination": 73.9992,
        "meta_ra_of_asc_node": 155.8997,
        "meta_arg_of_pericenter": 307.6156,
        "meta_mean_anomaly": 68.485,
        "meta_ephemeris_type": 0,
        "meta_classification_type": "U",
        "meta_norad_cat_id": 38001,
        "meta_element_set_no": 999,
        "meta_rev_at_epoch": 74531,
        "meta_bstar": 0.00064961053,
        "meta_mean_motion_dot": 4.925e-05,
        "meta_mean_motion_ddot": 0,
        "tle_line1": "1 38001U 93036BRC 25334.77908838  .00004925  00000+0  64961-3 0  9998",
        "tle_line2": "2 38001  73.9992 155.8997 0065142 307.6156  68.4850 14.78870093745311"
      },
      "geometry": {
        "type": "Point",
        "coordinates": [
          -26.35678740652223,
          -2.5668361978647316
        ]
      }
    },
    {
      "type": "Feature",
      "properties": {
        "norad_id": 38006,
        "name": "COSMOS 2251 DEB",
        "group": "cosmos-2251-debris",
        "lat": -11.264466302513224,
        "lon": -118.96402200671864,
        "alt_km": 797.1625515868991,
        "timestamp": "2025-12-02T07:10:09.514317+00:00",
        "meta_object_name": "COSMOS 2251 DEB",
        "meta_object_id": "1993-036BRH",
        "meta_epoch": "2025-12-01T12:00:57.044736",
        "meta_mean_motion": 14.45530874,
        "meta_eccentricity": 0.00745141,
        "meta_inclination": 73.8466,
        "meta_ra_of_asc_node": 59.2312,
        "meta_arg_of_pericenter": 10.3044,
        "meta_mean_anomaly": 349.9618,
        "meta_ephemeris_type": 0,
        "meta_classification_type": "U",
        "meta_norad_cat_id": 38006,
        "meta_element_set_no": 999,
        "meta_rev_at_epoch": 62797,
        "meta_bstar": 0.0024598906,
        "meta_mean_motion_dot": 8.963e-05,
        "meta_mean_motion_ddot": 0,
        "tle_line1": "1 38006U 93036BRH 25335.50066024  .00008963  00000+0  24599-2 0  9995",
        "tle_line2": "2 38006  73.8466  59.2312 0074514  10.3044 349.9618 14.45530874627970"
      },
      "geometry": {
        "type": "Point",
        "coordinates": [
          -118.96402200671864,
          -11.264466302513224
        ]
      }
    },
    {
      "type": "Feature",
      "properties": {
        "norad_id": 38054,
        "name": "COSMOS 2251 DEB",
        "group": "cosmos-2251-debris",
        "lat": -18.937726569850188,
        "lon": 108.5455635469296,
        "alt_km": 904.3918948341216,
        "timestamp": "2025-12-02T07:10:09.514327+00:00",
        "meta_object_name": "COSMOS 2251 DEB",
        "meta_object_id": "1993-036BRL",
        "meta_epoch": "2025-11-26T08:10:24.945600",
        "meta_mean_motion": 13.62179263,
        "meta_eccentricity": 0.03616303,
        "meta_inclination": 73.9545,
        "meta_ra_of_asc_node": 292.6204,
        "meta_arg_of_pericenter": 273.8545,
        "meta_mean_anomaly": 241.8921,
        "meta_ephemeris_type": 0,
        "meta_classification_type": "U",
        "meta_norad_cat_id": 38054,
        "meta_element_set_no": 999,
        "meta_rev_at_epoch": 66956,
        "meta_bstar": 0.0037967706,
        "meta_mean_motion_dot": 4.525e-05,
        "meta_mean_motion_ddot": 0,
        "tle_line1": "1 38054U 93036BRL 25330.34056650  .00004525  00000+0  37968-2 0  9993",
        "tle_line2": "2 38054  73.9545 292.6204 0361630 273.8545 241.8921 13.62179263669562"
      },
      "geometry": {
        "type": "Point",
        "coordinates": [
          108.5455635469296,
          -18.937726569850188
        ]
      }
    },
    {
      "type": "Feature",
      "properties": {
        "norad_id": 38055,
        "name": "COSMOS 2251 DEB",
        "group": "cosmos-2251-debris",
        "lat": 26.118863599022717,
        "lon": 39.17399098004154,
        "alt_km": 680.1759869454991,
        "timestamp": "2025-12-02T07:10:09.514337+00:00",
        "meta_object_name": "COSMOS 2251 DEB",
        "meta_object_id": "1993-036BRM",
        "meta_epoch": "2025-11-30T11:23:37.489344",
        "meta_mean_motion": 14.76741647,
        "meta_eccentricity": 0.00655995,
        "meta_inclination": 74.0094,
        "meta_ra_of_asc_node": 230.8354,
        "meta_arg_of_pericenter": 1.0653,
        "meta_mean_anomaly": 178.44,
        "meta_ephemeris_type": 0,
        "meta_classification_type": "U",
        "meta_norad_cat_id": 38055,
        "meta_element_set_no": 999,
        "meta_rev_at_epoch": 60501,
        "meta_bstar": 0.0010104465,
        "meta_mean_motion_dot": 7.307e-05,
        "meta_mean_motion_ddot": 0,
        "tle_line1": "1 38055U 93036BRM 25334.47473946  .00007307  00000+0  10104-2 0  9997",
        "tle_line2": "2 38055  74.0094 230.8354 0065599   1.0653 178.4400 14.76741647605014"
      },
      "geometry": {
        "type": "Point",
        "coordinates": [
          39.17399098004154,
          26.118863599022717
        ]
      }
    },
    {
      "type": "Feature",
      "properties": {
        "norad_id": 38060,
        "name": "COSMOS 2251 DEB",
        "group": "cosmos-2251-debris",
        "lat": 29.62760331038175,
        "lon": 125.98184510087633,
        "alt_km": 675.2295730486921,
        "timestamp": "2025-12-02T07:10:09.514347+00:00",
        "meta_object_name": "COSMOS 2251 DEB",
        "meta_object_id": "1993-036BRS",
        "meta_epoch": "2025-11-30T16:46:11.567136",
        "meta_mean_motion": 14.63742552,
        "meta_eccentricity": 0.0057629,
        "meta_inclination": 74.0424,
        "meta_ra_of_asc_node": 318.4162,
        "meta_arg_of_pericenter": 67.815,
        "meta_mean_anomaly": 292.9119,
        "meta_ephemeris_type": 0,
        "meta_classification_type": "U",
        "meta_norad_cat_id": 38060,
        "meta_element_set_no": 999,
        "meta_rev_at_epoch": 71788,
        "meta_bstar": 0.00051174098,
        "meta_mean_motion_dot": 2.701e-05,
        "meta_mean_motion_ddot": 0,
        "tle_line1": "1 38060U 93036BRS 25334.69874499  .00002701  00000+0  51174-3 0  9991",
        "tle_line2": "2 38060  74.0424 318.4162 0057629  67.8150 292.9119 14.63742552717884"
      },
      "geometry": {
        "type": "Point",
        "coordinates": [
          125.98184510087633,
          29.62760331038175
        ]
      }
    }
  ]
}